{"type": "FeatureCollection", "features": [ {"type": "Feature", "properties": {"norad_id": 34141, "name": "COSMOS 2251 DEB", "group": "cosmos-2251-debris", "lat": -67.89270096396122, "lon": -29.12251585681938, "alt_km": 767.8267936359207, "timestamp": "2025-12-19T16:54:44.657030+00:00", "meta": {"OBJECT_NAME": "COSMOS 2251 DEB", "OBJECT_ID": "1993-036LN", "EPOCH": "2025-12-19T04:19:53.548896", "MEAN_MOTION": 14.49303021, "ECCENTRICITY": 0.00466886, "INCLINATION": 74.0109, "RA_OF_ASC_NODE": 16.7614, "ARG_OF_PERICENTER": 100.7968, "MEAN_ANOMALY": 330.8377, "EPHEMERIS_TYPE": 0, "CLASSIFICATION_TYPE": "U", "NORAD_CAT_ID": 34141, "ELEMENT_SET_NO": 999, "REV_AT_EPOCH": 87787, "BSTAR": 0.00093564955, "MEAN_MOTION_DOT": 3.595e-05, "MEAN_MOTION_DDOT": 0}, "tle": {"line1": "1 34141U 93036LN  25353.18048089  .00003595  00000+0  93565-3 0  9992", "line2": "2 34141  74.0109  16.7614 0046688 100.7968 330.8377 14.49303021877879"}}, "geometry": {"type": "Point", "coordinates": [-29.12251585681938, -67.89270096396122]}}, {"type": "Feature", "properties": {"norad_id": 34270, "name": "COSMOS 2251 DEB", "group": "cosmos-2251-debris", "lat": -70.88650808504748, "lon": -122.62323851099241, "alt_km": 715.6200179448415, "timestamp": "2025-12-19T16:54:44.657040+00:00", "meta": {"OBJECT_NAME": "COSMOS 2251 DEB", "OBJECT_ID": "1993-036LQ", "EPOCH": "2025-12-19T05:48:19.528416", "MEAN_MOTION": 14.65217455, "ECCENTRICITY": 0.00478323, "INCLINATION": 74.0116, "RA_OF_ASC_NODE": 294.0965, "ARG_OF_PERICENTER": 84.9602, "MEAN_ANOMALY": 275.7023, "EPHEMERIS_TYPE": 0, "CLASSIFICATION_TYPE": "U", "NORAD_CAT_ID": 34270, "ELEMENT_SET_NO": 999, "REV_AT_EPOCH": 89191, "BSTAR": 0.00052062092, "MEAN_MOTION_DOT": 2.82e-05, "MEAN_MOTION_DDOT": 0}, "tle": {"line1": "1 34270U 93036LQ  25353.24189269  .00002820  00000+0  52062-3 0  9995", "line2": "2 34270  74.0116 294.0965 0047832  84.9602 275.7023 14.65217455891919"}}, "geometry": {"type": "Point", "coordinates": [-122.62323851099241, -70.88650808504748]}}, {"type": "Feature", "properties": {"norad_id": 34271, "name": "COSMOS 2251 DEB", "group": "cosmos-2251-debris", "lat": 7.732420117948747, "lon": -171.97609467042795, "alt_km": 667.9653902604814, "timestamp": "2025-12-19T16:54:44.657051+00:00", "meta": {"OBJECT_NAME": "COSMOS 2251 DEB", "OBJECT_ID": "1993-036LR", "EPOCH": "2025-12-18T23:38:11.090112", "MEAN_MOTION": 14.70888158, "ECCENTRICITY": 0.00184979, "INCLINATION": 74.0192, "RA_OF_ASC_NODE": 187.1923, "ARG_OF_PERICENTER": 240.7026, "MEAN_ANOMALY": 277.1993, "EPHEMERIS_TYPE": 0, "CLASSIFICATION_TYPE": "U", "NORAD_CAT_ID": 34271, "ELEMENT_SET_NO": 999, "REV_AT_EPOCH": 88326, "BSTAR": 0.0014472167, "MEAN_MOTION_DOT": 8.86e-05, "MEAN_MOTION_DDOT": 0}, "tle": {"line1": "1 34271U 93036LR  25352.98485058  .00008860  00000+0  14472-2 0  9993", "line2": "2 34271  74.0192 187.1923 0018497 240.7026 277.1993 14.70888158883268"}}, "geometry": {"type": "Point", "coordinates": [-171.97609467042795, 7.732420117948747]}}, {"type": "Feature", "properties": {"norad_id": 34273, "name": "COSMOS 2251 DEB", "group": "cosmos-2251-debris", "lat": 31.034089116592877, "lon": -115.80649028661841, "alt_km": 681.0369240757218, "timestamp": "2025-12-19T16:54:44.657062+00:00", "meta": {"OBJECT_NAME": "COSMOS 2251 DEB", "OBJECT_ID": "1993-036LT", "EPOCH": "2025-12-19T04:51:53.871840", "MEAN_MOTION": 14.61282367, "ECCENTRICITY": 0.00137708, "INCLINATION": 74.0364, "RA_OF_ASC_NODE": 75.0702, "ARG_OF_PERICENTER": 200.9624, "MEAN_ANOMALY": 187.0176, "EPHEMERIS_TYPE": 0, "CLASSIFICATION_TYPE": "U", "NORAD_CAT_ID": 34273, "ELEMENT_SET_NO": 999, "REV_AT_EPOCH": 88716, "BSTAR": 0.00068001729, "MEAN_MOTION_DOT": 3.332e-05, "MEAN_MOTION_DDOT": 0}, "tle": {"line1": "1 34273U 93036LT  25353.20270685  .00003332  00000+0  68002-3 0  9997", "line2": "2 34273  74.0364  75.0702 0013770 200.9624 187.0176 14.61282367887167"}}, "geometry": {"type": "Point", "coordinates": [-115.80649028661841, 31.034089116592877]}}, {"type": "Feature", "properties": {"norad_id": 34274, "name": "COSMOS 2251 DEB", "group": "cosmos-2251-debris", "lat": -38.80255089235535, "lon": 41.81313700236309, "alt_km": 690.0177738545372, "timestamp": "2025-12-19T16:54:44.657072+00:00", "meta": {"OBJECT_NAME": "COSMOS 2251 DEB", "OBJECT_ID": "1993-036LU", "EPOCH": "2025-12-19T05:53:04.504128", "MEAN_MOTION": 14.64855162, "ECCENTRICITY": 0.00216983, "INCLINATION": 74.0045, "RA_OF_ASC_NODE": 56.0337, "ARG_OF_PERICENTER": 205.6701, "MEAN_ANOMALY": 211.384, "EPHEMERIS_TYPE": 0, "CLASSIFICATION_TYPE": "U", "NORAD_CAT_ID": 34274, "ELEMENT_SET_NO": 999, "REV_AT_EPOCH": 88771, "BSTAR": 0.00074138621, "MEAN_MOTION_DOT": 3.944e-05, "MEAN_MOTION_DDOT": 0}, "tle": {"line1": "1 34274U 93036LU  25353.24519102  .00003944  00000+0  74139-3 0  9999", "line2": "2 34274  74.0045  56.0337 0021698 205.6701 211.3840 14.64855162887715"}}, "geometry": {"type": "Point", "coordinates": [41.81313700236309, -38.80255089235535]}}, {"type": "Feature", "properties": {"norad_id": 34276, "name": "COSMOS 2251 DEB", "group": "cosmos-2251-debris", "lat": 62.136643579633784, "lon": 104.89249641038049, "alt_km": 709.4859228640889, "timestamp": "2025-12-19T16:54:44.657083+00:00", "meta": {"OBJECT_NAME": "COSMOS 2251 DEB", "OBJECT_ID": "1993-036LW", "EPOCH": "2025-12-19T00:23:38.434848", "MEAN_MOTION": 14.5726892, "ECCENTRICITY": 0.00223883, "INCLINATION": 74.0242, "RA_OF_ASC_NODE": 73.3875, "ARG_OF_PERICENTER": 219.6756, "MEAN_ANOMALY": 198.0746, "EPHEMERIS_TYPE": 0, "CLASSIFICATION_TYPE": "U", "NORAD_CAT_ID": 34276, "ELEMENT_SET_NO": 999, "REV_AT_EPOCH": 88684, "BSTAR": 0.00055455287, "MEAN_MOTION_DOT": 2.488e-05, "MEAN_MOTION_DDOT": 0}, "tle": {"line1": "1 34276U 93036LW  25353.01641707  .00002488  00000+0  55455-3 0  9995", "line2": "2 34276  74.0242  73.3875 0022388 219.6756 198.0746 14.57268920886848"}}, "geometry": {"type": "Point", "coordinates": [104.89249641038049, 62.136643579633784]}}, {"type": "Feature", "properties": {"norad_id": 34297, "name": "COSMOS 2251 DEB", "group": "cosmos-2251-debris", "lat": -69.86517779114838, "lon": -139.8250973310857, "alt_km": 769.6111927237152, "timestamp": "2025-12-19T16:54:44.657093+00:00", "meta": {"OBJECT_NAME": "COSMOS 2251 DEB", "OBJECT_ID": "1993-036MT", "EPOCH": "2025-12-19T06:17:55.993632", "MEAN_MOTION": 14.36634553, "ECCENTRICITY": 0.00175432, "INCLINATION": 74.0488, "RA_OF_ASC_NODE": 272.2551, "ARG_OF_PERICENTER": 339.7858, "MEAN_ANOMALY": 176.6054, "EPHEMERIS_TYPE": 0, "CLASSIFICATION_TYPE": "U", "NORAD_CAT_ID": 34297, "ELEMENT_SET_NO": 999, "REV_AT_EPOCH": 88158, "BSTAR": 9.8961706e-05, "MEAN_MOTION_DOT": 2.65e-06, "MEAN_MOTION_DDOT": 0}, "tle": {"line1": "1 34297U 93036MT  25353.26245363  .00000265  00000+0  98962-4 0  9995", "line2": "2 34297  74.0488 272.2551 0017543 339.7858 176.6054 14.36634553881584"}}, "geometry": {"type": "Point", "coordinates": [-139.8250973310857, -69.86517779114838]}}, {"type": "Feature", "properties": {"norad_id": 34299, "name": "COSMOS 2251 DEB", "group": "cosmos-2251-debris", "lat": -6.812126393583266, "lon": 140.44526561146202, "alt_km": 307.9453917802248, "timestamp": "2025-12-19T16:54:44.657104+00:00", "meta": {"OBJECT_NAME": "COSMOS 2251 DEB", "OBJECT_ID": "1993-036MV", "EPOCH": "2025-12-19T04:02:34.782432", "MEAN_MOTION": 15.88400264, "ECCENTRICITY": 0.00124917, "INCLINATION": 73.9697, "RA_OF_ASC_NODE": 319.7284, "ARG_OF_PERICENTER": 80.4693, "MEAN_ANOMALY": 279.7951, "EPHEMERIS_TYPE": 0, "CLASSIFICATION_TYPE": "U", "NORAD_CAT_ID": 34299, "ELEMENT_SET_NO": 999, "REV_AT_EPOCH": 89112, "BSTAR": 0.0057530382, "MEAN_MOTION_DOT": 0.01573161, "MEAN_MOTION_DDOT": 0.0011756805}, "tle": {"line1": "1 34299U 93036MV  25353.16845813  .01573161  11757-2  57530-2 0  9991", "line2": "2 34299  73.9697 319.7284 0012491  80.4693 279.7951 15.88400264891120"}}, "geometry": {"type": "Point", "coordinates": [140.44526561146202, -6.812126393583266]}}, {"type": "Feature", "properties": {"norad_id": 34301, "name": "COSMOS 2251 DEB", "group": "cosmos-2251-debris", "lat": -6.416839333725416, "lon": 151.00706207648267, "alt_km": 623.1073614698653, "timestamp": "2025-12-19T16:54:44.657115+00:00", "meta": {"OBJECT_NAME": "COSMOS 2251 DEB", "OBJECT_ID": "1993-036MX", "EPOCH": "2025-12-18T20:28:51.464352", "MEAN_MOTION": 14.84832368, "ECCENTRICITY": 0.00107245, "INCLINATION": 74.0044, "RA_OF_ASC_NODE": 154.548, "ARG_OF_PERICENTER": 216.5383, "MEAN_ANOMALY": 268.0889, "EPHEMERIS_TYPE": 0, "CLASSIFICATION_TYPE": "U", "NORAD_CAT_ID": 34301, "ELEMENT_SET_NO": 999, "REV_AT_EPOCH": 88491, "BSTAR": 0.0023629074, "MEAN_MOTION_DOT": 0.00020121, "MEAN_MOTION_DDOT": 0}, "tle": {"line1": "1 34301U 93036MX  25352.85337343  .00020121  00000+0  23629-2 0  9994", "line2": "2 34301  74.0044 154.5480 0010724 216.5383 268.0889 14.84832368884919"}}, "geometry": {"type": "Point", "coordinates": [151.00706207648267, -6.416839333725416]}}, {"type": "Feature", "properties": {"norad_id": 34302, "name": "COSMOS 2251 DEB", "group": "cosmos-2251-debris", "lat": 24.86947520311611, "lon": 118.38863396226927, "alt_km": 732.607881338854, "timestamp": "2025-12-19T16:54:44.657126+00:00", "meta": {"OBJECT_NAME": "COSMOS 2251 DEB", "OBJECT_ID": "1993-036MY", "EPOCH": "2025-12-19T00:41:07.253088", "MEAN_MOTION": 14.39353541, "ECCENTRICITY": 0.0079127, "INCLINATION": 74.1779, "RA_OF_ASC_NODE": 112.0723, "ARG_OF_PERICENTER": 325.5447, "MEAN_ANOMALY": 157.6335, "EPHEMERIS_TYPE": 0, "CLASSIFICATION_TYPE": "U", "NORAD_CAT_ID": 34302, "ELEMENT_SET_NO": 999, "REV_AT_EPOCH": 87811, "BSTAR": 0.00045692035, "MEAN_MOTION_DOT": 1.447e-05, "MEAN_MOTION_DDOT": 0}, "tle": {"line1": "1 34302U 93036MY  25353.02855617  .00001447  00000+0  45692-3 0  9999", "line2": "2 34302  74.1779 112.0723 0079127 325.5447 157.6335 14.39353541878114"}}, "geometry": {"type": "Point", "coordinates": [118.38863396226927, 24.86947520311611]}}]}